FENGYUN 1C DEB          
1 30556U 99025AKW 17345.38786088  .00000361  00000-0  27655-3 0  9990
2 30556  98.9957  38.5349 0065143  64.6612 357.2843 13.98552153553809
